[{"OBJECT_NAME":"STARLINK-4265","OBJECT_ID":"2022-076AB","EPOCH":"2026-03-09T08:53:00.695616","MEAN_MOTION":15.0884958,"ECCENTRICITY":0.00012803,"INCLINATION":53.2175,"RA_OF_ASC_NODE":85.5532,"ARG_OF_PERICENTER":86.9138,"MEAN_ANOMALY":273.2001,"EPHEMERIS_TYPE":0,"CLASSIFICATION_TYPE":"U","NORAD_CAT_ID":53011,"ELEMENT_SET_NO":999,"REV_AT_EPOCH":20293,"BSTAR":6.693628e-5,"MEAN_MOTION_DOT":7.78e-6,"MEAN_MOTION_DDOT":0},{"OBJECT_NAME":"OBJECT G","OBJECT_ID":"2026-027G","EPOCH":"2026-03-09T21:53:37.288032","MEAN_MOTION":15.12145257,"ECCENTRICITY":0.00120269,"INCLINATION":97.4906,"RA_OF_ASC_NODE":197.8999,"ARG_OF_PERICENTER":227.3105,"MEAN_ANOMALY":132.7114,"EPHEMERIS_TYPE":0,"CLASSIFICATION_TYPE":"U","NORAD_CAT_ID":67752,"ELEMENT_SET_NO":999,"REV_AT_EPOCH":389,"BSTAR":0.00053594907,"MEAN_MOTION_DOT":9.195e-5,"MEAN_MOTION_DDOT":0}]
